ISS (ZARYA)             
1 25544U 98067A   26065.54469341  .00009332  00000+0  18044-3 0  9991
2 25544  51.6317  87.9051 0008117 163.3368 196.7888 15.48477653555846
POISK                   
1 36086U 09060A   26065.54469341  .00009332  00000+0  18044-3 0  9999
2 36086  51.6317  87.9051 0008117 163.3368 196.7888 15.48477653554444
CSS (TIANHE)            
1 48274U 21035A   26065.83578792  .00025906  00000+0  30829-3 0  9990
2 48274  41.4663 225.5243 0006950 255.9346 104.0720 15.60495557277162
ISS (NAUKA)             
1 49044U 21066A   26065.54469341  .00009332  00000+0  18044-3 0  9997
2 49044  51.6317  87.9051 0008117 163.3368 196.7888 15.48477653554453
FREGAT DEB              
1 49271U 11037PF  26064.97574117  .00028561  00000+0  41642-1 0  9993
2 49271  51.6493 311.8987 0957104  50.8853 317.3235 12.39967329212230
CSS (WENTIAN)           
1 53239U 22085A   26065.83578792  .00025906  00000+0  30829-3 0  9993
2 53239  41.4663 225.5243 0006950 255.9346 104.0720 15.60495557276843
CSS (MENGTIAN)          
1 54216U 22143A   26065.83578792  .00025906  00000+0  30829-3 0  9994
2 54216  41.4663 225.5243 0006950 255.9346 104.0720 15.60495557276816
PROGRESS-MS 31          
1 64751U 25146A   26065.54469341  .00009332  00000+0  18044-3 0  9992
2 64751  51.6317  87.9051 0008117 163.3368 196.7888 15.48477653554466
TIANZHOU-9              
1 64786U 25149A   26065.83578792  .00025906  00000+0  30829-3 0  9996
2 64786  41.4663 225.5243 0006950 255.9346 104.0720 15.60495557276820
PROGRESS-MS 32          
1 65586U 25204A   26065.54469341  .00009332  00000+0  18044-3 0  9994
2 65586  51.6317  87.9051 0008117 163.3368 196.7888 15.48477653554508
CYGNUS NG-23            
1 65616U 25208A   26065.54469341  .00009332  00000+0  18044-3 0  9992
2 65616  51.6317  87.9051 0008117 163.3368 196.7888 15.48477653554513
ISS OBJECT XK           
1 65731U 98067XK  26065.35324646  .01473506  15937-2  13181-2 0  9993
2 65731  51.6138  63.9395 0004334  87.4881 272.6630 16.12476132 26369
